{
    "links": {
        "self": "http://www.neowsapp.com/rest/v1/neo/3512699?api_key=iIulBulltgU6a56xZRHN4H3l9WmuAYTsLGpBGhQ2"
    },
    "id": "3512699",
    "neo_reference_id": "3512699",
    "name": "(2010 FS9)",
    "designation": "2010 FS9",
    "nasa_jpl_url": "http://ssd.jpl.nasa.gov/sbdb.cgi?sstr=3512699",
    "absolute_magnitude_h": 24.9,
    "estimated_diameter": {
        "kilometers": {
            "estimated_diameter_min": 0.0278326768,
            "estimated_diameter_max": 0.0622357573
        },
        "meters": {
            "estimated_diameter_min": 27.8326768072,
            "estimated_diameter_max": 62.2357573367
        },
        "miles": {
            "estimated_diameter_min": 0.0172944182,
            "estimated_diameter_max": 0.0386714948
        },
        "feet": {
            "estimated_diameter_min": 91.3145593761,
            "estimated_diameter_max": 204.1855621004
        }
    },
    "is_potentially_hazardous_asteroid": false,
    "close_approach_data": [
        {
            "close_approach_date": "2009-12-24",
            "close_approach_date_full": "2009-Dec-24 00:24",
            "epoch_date_close_approach": 1261614240000,
            "relative_velocity": {
                "kilometers_per_second": "14.9367460518",
                "kilometers_per_hour": "53772.2857863652",
                "miles_per_hour": "33412.0072432001"
            },
            "miss_distance": {
                "astronomical": "0.0579357361",
                "lunar": "22.5370013429",
                "kilometers": "8667062.717442107",
                "miles": "5385463.0453787966"
            },
            "orbiting_body": "Mars"
        },
        {
            "close_approach_date": "2010-03-27",
            "close_approach_date_full": "2010-Mar-27 04:21",
            "epoch_date_close_approach": 1269663660000,
            "relative_velocity": {
                "kilometers_per_second": "8.3571320377",
                "kilometers_per_hour": "30085.6753357331",
                "miles_per_hour": "18694.0686551393"
            },
            "miss_distance": {
                "astronomical": "0.0432919678",
                "lunar": "16.8405754742",
                "kilometers": "6476386.170988586",
                "miles": "4024239.7601750468"
            },
            "orbiting_body": "Earth"
        }
    ],
    "orbital_data": {
        "orbit_id": "14",
        "orbit_determination_date": "2017-04-06 08:58:03",
        "first_observation_date": "2010-03-20",
        "last_observation_date": "2010-03-27",
        "data_arc_in_days": 7,
        "observations_used": 50,
        "orbit_uncertainty": "8",
        "minimum_orbit_intersection": ".0275194",
        "jupiter_tisserand_invariant": "3.144",
        "epoch_osculation": "2455278.5",
        "eccentricity": ".6013707819961875",
        "semi_major_axis": "2.574283652811789",
        "inclination": "3.036660754807813",
        "ascending_node_longitude": "6.313394964696288",
        "orbital_period": "1508.630991663332",
        "perihelion_distance": "1.026184679440361",
        "perihelion_argument": "193.4166792591603",
        "aphelion_distance": "4.122382626183215",
        "perihelion_time": "2455292.936500436048",
        "mean_anomaly": "356.5550620491713",
        "mean_motion": ".2386269419025286",
        "equinox": "J2000",
        "orbit_class": {
            "orbit_class_type": "AMO",
            "orbit_class_description": "Near-Earth asteroid orbits similar to that of 1221 Amor",
            "orbit_class_range": "1.017 AU < q (perihelion) < 1.3 AU"
        }
    },
    "is_sentry_object": false
}